0 SL-8 DEB
1 22842U 91009CM  13281.47808021  .00000064  00000-0  61296-3 0  7829
2 22842 073.8834 201.9871 0137846 162.4087 319.5891 12.35677998 17975
0 SL-8 DEB
1 22842U 91009CM  13283.57044711  .00000102  00000-0  89885-3 0  7838
2 22842 073.8836 199.2555 0137858 159.3115 267.4324 12.35679373 18236
0 SL-8 DEB
1 22842U 91009CM  13285.74809167  .00000123  00000-0  10622-2 0  7849
2 22842 073.8835 196.4122 0137875 156.1122 234.6136 12.35679723 18502
0 SL-8 DEB
1 22842U 91009CM  13288.20441869  .00000207  00000-0  17091-2 0  7855
2 22842 073.8832 193.2055 0137908 152.4995 001.5148 12.35680190 18800
0 SL-8 DEB
1 22842U 91009CM  13290.53249625  .00000173  00000-0  14472-2 0  7863
2 22842 073.8830 190.1663 0137985 149.0272 277.9492 12.35680575 19094
0 SL-8 DEB
1 22842U 91009CM  13292.70977902  .00000117  00000-0  10181-2 0  7872
2 22842 073.8826 187.3238 0138029 145.8165 243.5415 12.35681290 19369
0 SL-8 DEB
1 22842U 91009CM  13294.83412843  .00000093  00000-0  83256-3 0  7884
2 22842 073.8825 184.5503 0138083 142.6829 333.6693 12.35682155 19623
